ONEWEB-0668             
1 56711U 23068B   25150.88794146  .00000093  00000+0  20985-3 0  9997
2 56711  87.9034 304.9505 0002363  91.9021 268.2380 13.16595261101476
ONEWEB-0676             
1 56712U 23068C   25150.94412748  .00000062  00000+0  12836-3 0  9992
2 56712  87.9025 304.9675 0001346  92.4764 267.6521 13.16595383101403
ONEWEB-0677             
1 56713U 23068D   25150.91797130 -.00000123  00000+0 -33430-3 0  9994
2 56713  87.9255 350.5714 0001738  78.5339 281.5989 13.20771184 99340
ONEWEB-0678             
1 56714U 23068E   25150.89584515  .00000080  00000+0  17975-3 0  9999
2 56714  87.9050 335.3805 0001609 101.3561 258.7750 13.15550263 99029
ONEWEB-0679             
1 56715U 23068F   25150.91327573 -.00000027  00000+0 -10418-3 0  9990
2 56715  87.9023 304.9666 0001949  80.4523 279.6828 13.16595347101428
ONEWEB-0680             
1 56716U 23068G   25150.83041850 -.00000054  00000+0 -16174-3 0  9998
2 56716  87.9225 320.2303 0002441  85.2453 274.8959 13.21824941100584
ONEWEB-0681             
1 56717U 23068H   25150.91634936 -.00000022  00000+0 -83575-4 0  9996
2 56717  87.9245 320.2351 0001336  62.6729 297.4541 13.21827585100582
ONEWEB-0682             
1 56718U 23068J   25150.92198898 -.00000102  00000+0 -30545-3 0  9997
2 56718  87.9045 335.4066 0002225  81.2791 278.8591 13.15550505 99196
